{"type": "FeatureCollection", "features": [ {"type": "Feature", "properties": {"norad_id": 34077, "name": "IRIDIUM 33 DEB", "group": "iridium-33-debris", "lat": -83.78081599727768, "lon": 15.126073236043839, "alt_km": 688.2207841407771, "timestamp": "2025-12-14T20:40:32.157495+00:00", "meta": {"OBJECT_NAME": "IRIDIUM 33 DEB", "OBJECT_ID": "1997-051CL", "EPOCH": "2025-12-14T04:54:48.563136", "MEAN_MOTION": 14.64862687, "ECCENTRICITY": 0.00100512, "INCLINATION": 86.3862, "RA_OF_ASC_NODE": 50.8618, "ARG_OF_PERICENTER": 34.9001, "MEAN_ANOMALY": 19.1188, "EPHEMERIS_TYPE": 0, "CLASSIFICATION_TYPE": "U", "NORAD_CAT_ID": 34077, "ELEMENT_SET_NO": 999, "REV_AT_EPOCH": 88354, "BSTAR": 0.001264676, "MEAN_MOTION_DOT": 6.781e-05, "MEAN_MOTION_DDOT": 0}, "tle": {"line1": "1 34077U 97051CL  25348.20472874  .00006781  00000+0  12647-2 0  9992", "line2": "2 34077  86.3862  50.8618 0010051  34.9001  19.1188 14.64862687883546"}}, "geometry": {"type": "Point", "coordinates": [15.126073236043839, -83.78081599727768]}}, {"type": "Feature", "properties": {"norad_id": 34079, "name": "IRIDIUM 33 DEB", "group": "iridium-33-debris", "lat": 49.473082989522396, "lon": 11.94683796244617, "alt_km": 611.0898596886873, "timestamp": "2025-12-14T20:40:32.157505+00:00", "meta": {"OBJECT_NAME": "IRIDIUM 33 DEB", "OBJECT_ID": "1997-051CN", "EPOCH": "2025-12-14T07:33:52.163712", "MEAN_MOTION": 14.83583848, "ECCENTRICITY": 0.00054033, "INCLINATION": 86.378, "RA_OF_ASC_NODE": 7.946, "ARG_OF_PERICENTER": 3.2861, "MEAN_ANOMALY": 10.5471, "EPHEMERIS_TYPE": 0, "CLASSIFICATION_TYPE": "U", "NORAD_CAT_ID": 34079, "ELEMENT_SET_NO": 999, "REV_AT_EPOCH": 89001, "BSTAR": 0.0017176306, "MEAN_MOTION_DOT": 0.00014194, "MEAN_MOTION_DDOT": 0}, "tle": {"line1": "1 34079U 97051CN  25348.31518708  .00014194  00000+0  17176-2 0  9992", "line2": "2 34079  86.3780   7.9460 0005403   3.2861  10.5471 14.83583848890013"}}, "geometry": {"type": "Point", "coordinates": [11.94683796244617, 49.473082989522396]}}, {"type": "Feature", "properties": {"norad_id": 34088, "name": "IRIDIUM 33 DEB", "group": "iridium-33-debris", "lat": -21.228024627298915, "lon": -148.84357599096688, "alt_km": 595.1263723052616, "timestamp": "2025-12-14T20:40:32.157516+00:00", "meta": {"OBJECT_NAME": "IRIDIUM 33 DEB", "OBJECT_ID": "1997-051CX", "EPOCH": "2025-12-14T03:56:23.951904", "MEAN_MOTION": 14.91481864, "ECCENTRICITY": 0.00059432, "INCLINATION": 86.3853, "RA_OF_ASC_NODE": 30.0697, "ARG_OF_PERICENTER": 171.4078, "MEAN_ANOMALY": 248.0297, "EPHEMERIS_TYPE": 0, "CLASSIFICATION_TYPE": "U", "NORAD_CAT_ID": 34088, "ELEMENT_SET_NO": 999, "REV_AT_EPOCH": 88763, "BSTAR": 0.0024702744, "MEAN_MOTION_DOT": 0.00024801, "MEAN_MOTION_DDOT": 0}, "tle": {"line1": "1 34088U 97051CX  25348.16416611  .00024801  00000+0  24703-2 0  9995", "line2": "2 34088  86.3853  30.0697 0005943 171.4078 248.0297 14.91481864887632"}}, "geometry": {"type": "Point", "coordinates": [-148.84357599096688, -21.228024627298915]}}, {"type": "Feature", "properties": {"norad_id": 34091, "name": "IRIDIUM 33 DEB", "group": "iridium-33-debris", "lat": -45.76182990712578, "lon": 62.093855239910084, "alt_km": 609.18777168614, "timestamp": "2025-12-14T20:40:32.157526+00:00", "meta": {"OBJECT_NAME": "IRIDIUM 33 DEB", "OBJECT_ID": "1997-051DA", "EPOCH": "2025-12-14T04:40:35.399424", "MEAN_MOTION": 14.81980164, "ECCENTRICITY": 0.00334508, "INCLINATION": 86.3414, "RA_OF_ASC_NODE": 66.1668, "ARG_OF_PERICENTER": 288.0463, "MEAN_ANOMALY": 71.7116, "EPHEMERIS_TYPE": 0, "CLASSIFICATION_TYPE": "U", "NORAD_CAT_ID": 34091, "ELEMENT_SET_NO": 999, "REV_AT_EPOCH": 87888, "BSTAR": 0.0049590842, "MEAN_MOTION_DOT": 0.00039901, "MEAN_MOTION_DDOT": 0}, "tle": {"line1": "1 34091U 97051DA  25348.19485416  .00039901  00000+0  49591-2 0  9990", "line2": "2 34091  86.3414  66.1668 0033450 288.0463  71.7116 14.81980164878888"}}, "geometry": {"type": "Point", "coordinates": [62.093855239910084, -45.76182990712578]}}, {"type": "Feature", "properties": {"norad_id": 34097, "name": "IRIDIUM 33 DEB", "group": "iridium-33-debris", "lat": -22.355648814405285, "lon": -177.96211503564484, "alt_km": 833.6197469431463, "timestamp": "2025-12-14T20:40:32.157536+00:00", "meta": {"OBJECT_NAME": "IRIDIUM 33 DEB", "OBJECT_ID": "1997-051DG", "EPOCH": "2025-12-14T01:19:19.199712", "MEAN_MOTION": 14.34791546, "ECCENTRICITY": 0.00824166, "INCLINATION": 86.201, "RA_OF_ASC_NODE": 0.8277, "ARG_OF_PERICENTER": 357.9129, "MEAN_ANOMALY": 2.171, "EPHEMERIS_TYPE": 0, "CLASSIFICATION_TYPE": "U", "NORAD_CAT_ID": 34097, "ELEMENT_SET_NO": 999, "REV_AT_EPOCH": 87138, "BSTAR": 0.0016859905, "MEAN_MOTION_DOT": 4.986e-05, "MEAN_MOTION_DDOT": 0}, "tle": {"line1": "1 34097U 97051DG  25348.05508333  .00004986  00000+0  16860-2 0  9993", "line2": "2 34097  86.2010   0.8277 0082416 357.9129   2.1710 14.34791546871385"}}, "geometry": {"type": "Point", "coordinates": [-177.96211503564484, -22.355648814405285]}}, {"type": "Feature", "properties": {"norad_id": 34145, "name": "IRIDIUM 33 DEB", "group": "iridium-33-debris", "lat": 9.948394811987644, "lon": 150.91649949223196, "alt_km": 747.4465511313974, "timestamp": "2025-12-14T20:40:32.157547+00:00", "meta": {"OBJECT_NAME": "IRIDIUM 33 DEB", "OBJECT_ID": "1997-051DY", "EPOCH": "2025-12-14T03:14:44.008512", "MEAN_MOTION": 14.42302595, "ECCENTRICITY": 0.00557463, "INCLINATION": 86.2114, "RA_OF_ASC_NODE": 331.9058, "ARG_OF_PERICENTER": 89.3765, "MEAN_ANOMALY": 271.3823, "EPHEMERIS_TYPE": 0, "CLASSIFICATION_TYPE": "U", "NORAD_CAT_ID": 34145, "ELEMENT_SET_NO": 999, "REV_AT_EPOCH": 87658, "BSTAR": 0.0012897788, "MEAN_MOTION_DOT": 4.356e-05, "MEAN_MOTION_DDOT": 0}, "tle": {"line1": "1 34145U 97051DY  25348.13523158  .00004356  00000+0  12898-2 0  9996", "line2": "2 34145  86.2114 331.9058 0055746  89.3765 271.3823 14.42302595876580"}}, "geometry": {"type": "Point", "coordinates": [150.91649949223196, 9.948394811987644]}}, {"type": "Feature", "properties": {"norad_id": 34146, "name": "IRIDIUM 33 DEB", "group": "iridium-33-debris", "lat": -38.51696410083906, "lon": 171.82886493517233, "alt_km": 717.0586786242538, "timestamp": "2025-12-14T20:40:32.157557+00:00", "meta": {"OBJECT_NAME": "IRIDIUM 33 DEB", "OBJECT_ID": "1997-051DZ", "EPOCH": "2025-12-14T06:29:42.870912", "MEAN_MOTION": 14.49064089, "ECCENTRICITY": 0.00256244, "INCLINATION": 86.2839, "RA_OF_ASC_NODE": 349.1246, "ARG_OF_PERICENTER": 216.196, "MEAN_ANOMALY": 162.0252, "EPHEMERIS_TYPE": 0, "CLASSIFICATION_TYPE": "U", "NORAD_CAT_ID": 34146, "ELEMENT_SET_NO": 999, "REV_AT_EPOCH": 88129, "BSTAR": 0.0010997924, "MEAN_MOTION_DOT": 4.212e-05, "MEAN_MOTION_DDOT": 0}, "tle": {"line1": "1 34146U 97051DZ  25348.27063508  .00004212  00000+0  10998-2 0  9990", "line2": "2 34146  86.2839 349.1246 0025624 216.1960 162.0252 14.49064089881290"}}, "geometry": {"type": "Point", "coordinates": [171.82886493517233, -38.51696410083906]}}, {"type": "Feature", "properties": {"norad_id": 34159, "name": "IRIDIUM 33 DEB", "group": "iridium-33-debris", "lat": -32.53420350483467, "lon": -130.33023031577386, "alt_km": 762.6419736400994, "timestamp": "2025-12-14T20:40:32.157567+00:00", "meta": {"OBJECT_NAME": "IRIDIUM 33 DEB", "OBJECT_ID": "1997-051EN", "EPOCH": "2025-12-14T04:39:46.508256", "MEAN_MOTION": 14.38499893, "ECCENTRICITY": 0.00259263, "INCLINATION": 86.351, "RA_OF_ASC_NODE": 47.6211, "ARG_OF_PERICENTER": 282.6185, "MEAN_ANOMALY": 77.2114, "EPHEMERIS_TYPE": 0, "CLASSIFICATION_TYPE": "U", "NORAD_CAT_ID": 34159, "ELEMENT_SET_NO": 999, "REV_AT_EPOCH": 87980, "BSTAR": 0.00053043656, "MEAN_MOTION_DOT": 1.645e-05, "MEAN_MOTION_DDOT": 0}, "tle": {"line1": "1 34159U 97051EN  25348.19428829  .00001645  00000+0  53044-3 0  9993", "line2": "2 34159  86.3510  47.6211 0025926 282.6185  77.2114 14.38499893879806"}}, "geometry": {"type": "Point", "coordinates": [-130.33023031577386, -32.53420350483467]}}, {"type": "Feature", "properties": {"norad_id": 34350, "name": "IRIDIUM 33 DEB", "group": "iridium-33-debris", "lat": -65.60588473713987, "lon": -6.255378995553104, "alt_km": 763.8951115881364, "timestamp": "2025-12-14T20:40:32.157578+00:00", "meta": {"OBJECT_NAME": "IRIDIUM 33 DEB", "OBJECT_ID": "1997-051ES", "EPOCH": "2025-12-14T07:45:39.237120", "MEAN_MOTION": 14.45391202, "ECCENTRICITY": 0.00229581, "INCLINATION": 86.3275, "RA_OF_ASC_NODE": 2.12, "ARG_OF_PERICENTER": 130.2714, "MEAN_ANOMALY": 245.6158, "EPHEMERIS_TYPE": 0, "CLASSIFICATION_TYPE": "U", "NORAD_CAT_ID": 34350, "ELEMENT_SET_NO": 999, "REV_AT_EPOCH": 88316, "BSTAR": 0.00041566324, "MEAN_MOTION_DOT": 1.486e-05, "MEAN_MOTION_DDOT": 0}, "tle": {"line1": "1 34350U 97051ES  25348.32337080  .00001486  00000+0  41566-3 0  9998", "line2": "2 34350  86.3275   2.1200 0022958 130.2714 245.6158 14.45391202883165"}}, "geometry": {"type": "Point", "coordinates": [-6.255378995553104, -65.60588473713987]}}, {"type": "Feature", "properties": {"norad_id": 34366, "name": "IRIDIUM 33 DEB", "group": "iridium-33-debris", "lat": -31.811669806139207, "lon": 46.133953078464856, "alt_km": 733.9430748365439, "timestamp": "2025-12-14T20:40:32.157589+00:00", "meta": {"OBJECT_NAME": "IRIDIUM 33 DEB", "OBJECT_ID": "1997-051FJ", "EPOCH": "2025-12-14T04:33:16.962624", "MEAN_MOTION": 14.54076443, "ECCENTRICITY": 0.00225871, "INCLINATION": 86.37, "RA_OF_ASC_NODE": 48.6828, "ARG_OF_PERICENTER": 135.0353, "MEAN_ANOMALY": 279.363, "EPHEMERIS_TYPE": 0, "CLASSIFICATION_TYPE": "U", "NORAD_CAT_ID": 34366, "ELEMENT_SET_NO": 999, "REV_AT_EPOCH": 88203, "BSTAR": 0.0011382007, "MEAN_MOTION_DOT": 4.841e-05, "MEAN_MOTION_DDOT": 0}, "tle": {"line1": "1 34366U 97051FJ  25348.18977966  .00004841  00000+0  11382-2 0  9992", "line2": "2 34366  86.3700  48.6828 0022587 135.0353 279.3630 14.54076443882037"}}, "geometry": {"type": "Point", "coordinates": [46.133953078464856, -31.811669806139207]}}]}